ONEWEB-0603             
1 54667U 22166AB  24027.58715271  .00000049  00000+0  87167-4 0  9991
2 54667  87.9213  57.4726 0001552 107.5305 252.5999 13.21827876 56338
ONEWEB-0604             
1 54668U 22166AC  24027.57453235  .00000083  00000+0  16879-3 0  9999
2 54668  87.9202  57.4651 0002158 101.6651 258.4725 13.21824862 56295
ONEWEB-0605             
1 54669U 22166AD  24027.56821729  .00000065  00000+0  12504-3 0  9997
2 54669  87.9203  57.5003 0001279 109.5690 250.5582 13.21825312 56365
ONEWEB-0606             
1 54670U 22166AE  24027.59030002  .00000014  00000+0  17956-5 0  9990
2 54670  87.9209  57.4775 0002025  91.4735 268.6631 13.21826374 56428
ONEWEB-0607             
1 54671U 22166AF  24027.55719077  .00000086  00000+0  17717-3 0  9995
2 54671  87.9206  57.4668 0001664 104.8528 255.2790 13.21827752 56399
ONEWEB-0608             
1 54672U 22166AG  24027.56348727  .00000083  00000+0  17062-3 0  9997
2 54672  87.9211  57.4790 0001354 114.3495 245.7780 13.21827118 56408
ONEWEB-0610             
1 54673U 22166AH  24027.62025989  .00000064  00000+0  12311-3 0  9998
2 54673  87.9205  57.4697 0001416 108.1636 251.9652 13.21828088 56780
ONEWEB-0611             
1 54674U 22166AJ  24027.53825940 -.00000041  00000+0 -12985-3 0  9998
2 54674  87.9205  57.4855 0002297  90.8419 269.2978 13.21826095 56296
